FENGYUN 1C DEB          
1 33733U 99025DHW 17344.44141148  .00001466  00000-0  89782-3 0  9994
2 33733  99.1672 330.5667 0109472  81.5140  70.2224 14.04474720492046
